GLOBALSTAR M094         
1 39074U 13005C   24172.62259519 -.00000075  00000+0  15901-3 0  9998
2 39074  51.9932 202.9757 0000397 179.9685 180.1182 12.62267224526738
GLOBALSTAR M096         
1 39075U 13005D   24172.47737414 -.00000067  00000+0  20678-3 0  9995
2 39075  52.0069 251.6506 0000801 155.5218 204.5687 12.62267049525619
GLOBALSTAR M078         
1 39076U 13005E   24172.92631577 -.00000181  00000+0 -42894-3 0  9991
2 39076  51.9893 335.2858 0001743 100.7897 259.3166 12.62272916524509
GLOBALSTAR M095         
1 39077U 13005F   24172.87301912 -.00000102  00000+0  11732-4 0  9993
2 39077  51.9819 332.8205 0001425 119.1086 240.9923 12.62264074524501
GLOBALSTAR M087         
1 52888U 22064A   24172.54605594 -.00000082  00000+0  89080-4 0  9998
2 52888  51.9734 196.6697 0009390  14.6690 345.4481 13.37576965 97976
